NORAD_CAT_ID,OBJECT_NAME,OBJECT_TYPE,EPOCH,MEAN_MOTION,ECCENTRICITY,INCLINATION,RA_OF_ASC_NODE,ARG_OF_PERICENTER,MEAN_ANOMALY,BSTAR,MEAN_MOTION_DOT,MEAN_MOTION_DDOT,TLE_LINE0,TLE_LINE1,TLE_LINE2,SEMIMAJOR_AXIS,PERIOD,APOGEE,PERIGEE,DECAYED
53928.0,STARLINK-5009,PAYLOAD,2023-01-13 22:00:00,15.12159513,0.0001330999999999,53.2127,70.0475,86.8756,97.3694,-0.069614,-0.0112048999999999,0.0,0 STARLINK-5009,1 53928U 22119AU  23013.91667824 -.01120490  00000-0 -69614-1 0  9990,2 53928  53.2127  70.0475 0001331  86.8756  97.3694 15.12159513  1305,6907.753000000001,95.228,530.5369999999999,528.698,0.0
53928.0,STARLINK-5009,PAYLOAD,2023-01-14 06:00:00,15.11389496,0.0001469,53.2129,68.5444,89.8099,109.529,-0.075797,-0.01188119,0.0,0 STARLINK-5009,1 53928U 22119AU  23014.25001157 -.01188119  00000-0 -75797-1 0  9990,2 53928  53.2129  68.5444 0001469  89.8099 109.5290 15.11389496 17860,6910.099,95.277,532.979,530.948,0.0
53928.0,STARLINK-5009,PAYLOAD,2023-01-14 22:00:00,15.0964816,0.0001224,53.2135,65.543,86.0838,140.5743,-0.062521,-0.00939387,0.0,0 STARLINK-5009,1 53928U 22119AU  23014.91667824 -.00939387  00000-0 -62521-1 0  9993,2 53928  53.2135  65.5430 0001224  86.0838 140.5743 15.09648160 17960,6915.411,95.386,538.123,536.43,0.0
53928.0,STARLINK-5009,PAYLOAD,2023-01-15 06:00:00,15.08902114,0.0001207,53.2146,64.0458,86.3957,152.4015,-0.0064715,-0.00101998,0.0,0 STARLINK-5009,1 53928U 22119AU  23015.25001157 -.00101998  00000-0 -64715-2 0  9999,2 53928  53.2146  64.0458 0001207  86.3957 152.4015 15.08902114 18014,6917.691,95.434,540.391,538.721,0.0
53928.0,STARLINK-5009,PAYLOAD,2023-01-15 14:00:01,15.08811467,0.0001203,53.215,62.5506,83.9606,166.4834,0.00055439,8.539e-05,0.0,0 STARLINK-5009,1 53928U 22119AU  23015.58334491  .00008539  00000-0  55439-3 0  9994,2 53928  53.2150  62.5506 0001203  83.9606 166.4834 15.08811467  1304,6917.968000000001,95.439,540.665,539.0,0.0
53928.0,STARLINK-5009,PAYLOAD,2023-01-15 22:00:01,15.08819155,0.0001115999999999,53.2159,61.0525,85.1876,176.8905,0.0013495,0.00021242,0.0,0 STARLINK-5009,1 53928U 22119AU  23015.91668981  .00021242  00000-0  13495-2 0  9996,2 53928  53.2159  61.0525 0001116  85.1876 176.8905 15.08819155 18117,6917.944,95.439,540.581,539.0369999999999,0.0
53928.0,STARLINK-5009,PAYLOAD,2023-01-16 06:00:00,15.08908891,0.0001313,53.2159,59.5567,107.1379,166.458,-0.0059178,-0.00093425,0.0,0 STARLINK-5009,1 53928U 22119AU  23016.25001157 -.00093425  00000-0 -59178-2 0  9992,2 53928  53.2159  59.5567 0001313 107.1379 166.4580 15.08908891 18173,6917.67,95.433,540.443,538.627,0.0
53928.0,STARLINK-5009,PAYLOAD,2023-01-16 14:00:01,15.08783145,0.000133,53.2158,58.0613,108.2141,177.0364,0.0022899,0.00036287,0.0,0 STARLINK-5009,1 53928U 22119AU  23016.58334491  .00036287  00000-0  22899-2 0  9999,2 53928  53.2158  58.0613 0001330 108.2141 177.0364 15.08783145  1304,6918.054,95.441,540.839,538.999,0.0
53928.0,STARLINK-5009,PAYLOAD,2023-01-17 14:00:01,15.08812144,0.0001264,53.2158,53.5725,112.8616,207.0189,0.0037093,0.00059196,0.0,0 STARLINK-5009,1 53928U 22119AU  23017.58334491  .00059196  00000-0  37093-2 0  9996,2 53928  53.2158  53.5725 0001264 112.8616 207.0189 15.08812144 18378,6917.965999999999,95.439,540.705,538.956,0.0
53928.0,STARLINK-5009,PAYLOAD,2023-01-17 22:00:00,15.08822277,0.0001361,53.2158,52.0744,123.7413,207.735,0.0038739,0.00061877,0.0,0 STARLINK-5009,1 53928U 22119AU  23017.91667824  .00061877  00000-0  38739-2 0  9999,2 53928  53.2158  52.0744 0001361 123.7413 207.7350 15.08822277  1307,6917.935,95.439,540.741,538.8580000000001,0.0
53928.0,STARLINK-5009,PAYLOAD,2023-01-18 06:00:00,15.08896179,0.0001303,53.2159,50.57899999999999,118.0535,225.0158,-0.0035725,-0.00056783,0.0,0 STARLINK-5009,1 53928U 22119AU  23018.25001157 -.00056783  00000-0 -35725-2 0  9992,2 53928  53.2159  50.5790 0001303 118.0535 225.0158 15.08896179 18477,6917.709,95.434,540.475,538.672,0.0
53928.0,STARLINK-5009,PAYLOAD,2023-01-18 09:15:16,15.088461,0.0001474,53.2164,49.9711,126.4724,233.6404,0.00011773,1.587e-05,0.0,0 STARLINK-5009,1 53928U 22119AU  23018.38561049  .00001587  00000-0  11773-3 0  9995,2 53928  53.2164  49.9711 0001474 126.4724 233.6404 15.08846100 18490,6917.861999999999,95.437,540.746,538.707,0.0
53928.0,STARLINK-5009,PAYLOAD,2023-01-18 22:00:00,15.08820166,0.0001202,53.2154,47.5851,113.417,252.9193,0.00489,0.0007836,0.0,0 STARLINK-5009,1 53928U 22119AU  23018.91667824  .00078360  00000-0  48900-2 0  9996,2 53928  53.2154  47.5851 0001202 113.4170 252.9193 15.08820166  1303,6917.941,95.439,540.638,538.974,0.0
53928.0,STARLINK-5009,PAYLOAD,2023-01-19 10:41:26,15.08840359,0.0001603,53.216,45.2093,100.0194,260.0979,0.00022413,3.281e-05,0.0,0 STARLINK-5009,1 53928U 22119AU  23019.44545074  .00003281  00000-0  22413-3 0  9999,2 53928  53.2160  45.2093 0001603 100.0194 260.0979 15.08840359 18650,6917.879,95.438,540.8530000000001,538.635,0.0
53928.0,STARLINK-5009,PAYLOAD,2023-01-19 12:16:49,15.08844059,0.0001621999999999,53.217,44.9116,108.7163,251.4006,0.00022153,3.24e-05,0.0,0 STARLINK-5009,1 53928U 22119AU  23019.51168766  .00003240  00000-0  22153-3 0  9992,2 53928  53.2170  44.9116 0001622 108.7163 251.4006 15.08844059 19089,6917.868,95.437,540.855,538.611,0.0
53928.0,STARLINK-5009,PAYLOAD,2023-01-19 18:38:23,15.08839471,0.0001814,53.2159,43.7229,85.6963,274.4236,4.2315e-05,3.85e-06,0.0,0 STARLINK-5009,1 53928U 22119AU  23019.77665857  .00000385  00000-0  42315-4 0  9993,2 53928  53.2159  43.7229 0001814  85.6963 274.4236 15.08839471 18702,6917.882,95.438,541.002,538.492,0.0
53928.0,STARLINK-5009,PAYLOAD,2023-01-20 10:32:14,15.08844454,0.0001082,53.2167,40.7504,102.5942,257.5171,-0.00011273,-2.082e-05,0.0,0 STARLINK-5009,1 53928U 22119AU  23020.43905884 -.00002082  00000-0 -11273-3 0  9991,2 53928  53.2167  40.7504 0001082 102.5942 257.5171 15.08844454 19222,6917.866999999999,95.437,540.48,538.9830000000001,0.0
53928.0,STARLINK-5009,PAYLOAD,2023-01-21 00:50:43,15.08834146,0.0001119,53.217,38.0743,97.181,262.9309,-8.390200000000001e-05,-1.623e-05,0.0,0 STARLINK-5009,1 53928U 22119AU  23021.03522330 -.00001623  00000-0 -83902-4 0  9998,2 53928  53.2170  38.0743 0001119  97.1810 262.9309 15.08834146 18897,6917.898,95.438,540.5369999999999,538.989,0.0
53928.0,STARLINK-5009,PAYLOAD,2023-01-21 10:23:00,15.08854029,0.0001262,53.2177,36.2879,100.1354,259.978,-2.561e-05,-6.96e-06,0.0,0 STARLINK-5009,1 53928U 22119AU  23021.43264870 -.00000696  00000-0 -25610-4 0  9995,2 53928  53.2177  36.2879 0001262 100.1354 259.9780 15.08854029 18959,6917.838000000001,95.437,540.576,538.8290000000001,0.0
53928.0,STARLINK-5009,PAYLOAD,2023-01-22 10:13:47,15.08842338,0.0001441999999999,53.218,31.8255,101.0534,259.062,0.00012122,1.642e-05,0.0,0 STARLINK-5009,1 53928U 22119AU  23022.42624972  .00001642  00000-0  12122-3 0  9991,2 53928  53.2180  31.8255 0001442 101.0534 259.0620 15.08842338 19104,6917.8730000000005,95.437,540.736,538.741,0.0
53928.0,STARLINK-5009,PAYLOAD,2023-01-23 00:32:17,15.08827086,0.0001406,53.2177,29.154,93.8629,266.2523,-6.8181e-05,-1.372e-05,0.0,0 STARLINK-5009,1 53928U 22119AU  23023.02242940 -.00001372  00000-0 -68181-4 0  9998,2 53928  53.2177  29.1540 0001406  93.8629 266.2523 15.08827086 19194,6917.92,95.438,540.758,538.812,0.0
53928.0,STARLINK-5009,PAYLOAD,2023-01-24 03:33:50,15.08842181,0.0001299,53.2178,24.0986,97.9602,262.1538,-5.3674e-05,-1.142e-05,0.0,0 STARLINK-5009,1 53928U 22119AU  23024.14850435 -.00001142  00000-0 -53674-4 0  9992,2 53928  53.2178  24.0986 0001299  97.9602 262.1538 15.08842181 19362,6917.874,95.437,540.637,538.84,0.0
53928.0,STARLINK-5009,PAYLOAD,2023-01-24 09:55:22,15.08849146,0.0001311,53.2178,22.9078,99.4604,260.6537,1.6661e-05,-2.3e-07,0.0,0 STARLINK-5009,1 53928U 22119AU  23024.41345665 -.00000023  00000-0  16661-4 0  9997,2 53928  53.2178  22.9078 0001311  99.4604 260.6537 15.08849146 19400,6917.852,95.437,540.624,538.811,0.0
53928.0,STARLINK-5009,PAYLOAD,2023-01-24 16:16:55,15.08840838,0.0001267,53.2172,21.7146,86.3642,273.7495,-2.8994e-05,-7.49e-06,0.0,0 STARLINK-5009,1 53928U 22119AU  23024.67842358 -.00000749  00000-0 -28994-4 0  9994,2 53928  53.2172  21.7146 0001267  86.3642 273.7495 15.08840838 19445,6917.878000000001,95.438,540.619,538.866,0.0
53928.0,STARLINK-5009,PAYLOAD,2023-01-25 03:24:38,15.08827073,0.0001117,53.2177,19.6377,90.5025,269.6095,6.3034000000000005e-06,-1.87e-06,0.0,0 STARLINK-5009,1 53928U 22119AU  23025.14211416 -.00000187  00000-0  63034-5 0  9992,2 53928  53.2177  19.6377 0001117  90.5025 269.6095 15.08827073 19512,6917.92,95.438,540.558,539.012,0.0
53928.0,STARLINK-5009,PAYLOAD,2023-01-25 09:46:10,15.08833672,0.0001133,53.2183,18.4476,88.556,271.5562,7.3564e-05,8.83e-06,0.0,0 STARLINK-5009,1 53928U 22119AU  23025.40706905  .00000883  00000-0  73564-4 0  9993,2 53928  53.2183  18.4476 0001133  88.5560 271.5562 15.08833672 19552,6917.9,95.438,540.549,538.981,0.0
53928.0,STARLINK-5009,PAYLOAD,2023-01-25 16:07:43,15.08831906,0.000112,53.2175,17.2578,83.9701,276.1419,3.479e-05,2.66e-06,0.0,0 STARLINK-5009,1 53928U 22119AU  23025.67203219  .00000266  00000-0  34790-4 0  9995,2 53928  53.2175  17.2578 0001120  83.9701 276.1419 15.08831906 20018,6917.905,95.438,540.545,538.995,0.0
53928.0,STARLINK-5009,PAYLOAD,2023-01-26 08:01:33,15.08848936,0.0001137,53.2173,14.2848,89.7171,270.3951,6.654600000000001e-05,7.72e-06,0.0,0 STARLINK-5009,1 53928U 22119AU  23026.33442109  .00000772  00000-0  66546-4 0  9998,2 53928  53.2173  14.2848 0001137  89.7171 270.3951 15.08848936 19696,6917.853,95.437,540.505,538.932,0.0
53928.0,STARLINK-5009,PAYLOAD,2023-01-27 03:06:12,15.08835401,0.000106,53.2186,10.717,104.8002,255.3108,4.6662e-05,4.55e-06,0.0,0 STARLINK-5009,1 53928U 22119AU  23027.12931000  .00000455  00000-0  46662-4 0  9994,2 53928  53.2186  10.7170 0001060 104.8002 255.3108 15.08835401 19810,6917.894,95.438,540.493,539.026,0.0
